{"type": "FeatureCollection", "features": [{"type": "Feature", "geometry": {"type": "Point", "coordinates": [5.2469, 46.2027]}, "properties": {"name": "Bourg-en-Bresse", "pop": 42372, "capital": false, "iso": "FR", "rank": 3, "dept": "01", "deptRank": 1}}, {"type": "Feature", "geometry": {"type": "Point", "coordinates": [5.6517, 46.2599]}, "properties": {"name": "Oyonnax", "pop": 22480, "capital": false, "iso": "FR", "rank": 4, "dept": "01", "deptRank": 2}}, {"type": "Feature", "geometry": {"type": "Point", "coordinates": [3.279, 49.8475]}, "properties": {"name": "Saint-Quentin", "pop": 52813, "capital": false, "iso": "FR", "rank": 3, "dept": "02", "deptRank": 1}}, {"type": "Feature", "geometry": {"type": "Point", "coordinates": [3.3235, 49.3766]}, "properties": {"name": "Soissons", "pop": 28046, "capital": false, "iso": "FR", "rank": 4, "dept": "02", "deptRank": 2}}, {"type": "Feature", "geometry": {"type": "Point", "coordinates": [2.608, 46.3428]}, "properties": {"name": "Montluçon", "pop": 33147, "capital": false, "iso": "FR", "rank": 3, "dept": "03", "deptRank": 1}}, {"type": "Feature", "geometry": {"type": "Point", "coordinates": [3.4254, 46.1318]}, "properties": {"name": "Vichy", "pop": 25115, "capital": false, "iso": "FR", "rank": 4, "dept": "03", "deptRank": 2}}, {"type": "Feature", "geometry": {"type": "Point", "coordinates": [5.7896, 43.8293]}, "properties": {"name": "Manosque", "pop": 22718, "capital": false, "iso": "FR", "rank": 3, "dept": "04", "deptRank": 1}}, {"type": "Feature", "geometry": {"type": "Point", "coordinates": [6.2495, 44.0954]}, "properties": {"name": "Digne-les-Bains", "pop": 17979, "capital": false, "iso": "FR", "rank": 4, "dept": "04", "deptRank": 2}}, {"type": "Feature", "geometry": {"type": "Point", "coordinates": [6.0616, 44.5797]}, "properties": {"name": "Gap", "pop": 41293, "capital": false, "iso": "FR", "rank": 3, "dept": "05", "deptRank": 1}}, {"type": "Feature", "geometry": {"type": "Point", "coordinates": [6.6536, 44.8995]}, "properties": {"name": "Briançon", "pop": 11411, "capital": false, "iso": "FR", "rank": 4, "dept": "05", "deptRank": 2}}, {"type": "Feature", "geometry": {"type": "Point", "coordinates": [7.2528, 43.7032]}, "properties": {"name": "Nice", "pop": 357737, "capital": false, "iso": "FR", "rank": 3, "dept": "06", "deptRank": 1}}, {"type": "Feature", "geometry": {"type": "Point", "coordinates": [7.1048, 43.5823]}, "properties": {"name": "Antibes", "pop": 77637, "capital": false, "iso": "FR", "rank": 4, "dept": "06", "deptRank": 2}}, {"type": "Feature", "geometry": {"type": "Point", "coordinates": [4.6419, 45.2449]}, "properties": {"name": "Annonay", "pop": 17274, "capital": false, "iso": "FR", "rank": 3, "dept": "07", "deptRank": 1}}, {"type": "Feature", "geometry": {"type": "Point", "coordinates": [4.3942, 44.6107]}, "properties": {"name": "Aubenas", "pop": 12416, "capital": false, "iso": "FR", "rank": 4, "dept": "07", "deptRank": 2}}, {"type": "Feature", "geometry": {"type": "Point", "coordinates": [4.7304, 49.7802]}, "properties": {"name": "Charleville-Mézières", "pop": 45560, "capital": false, "iso": "FR", "rank": 3, "dept": "08", "deptRank": 1}}, {"type": "Feature", "geometry": {"type": "Point", "coordinates": [4.9269, 49.6993]}, "properties": {"name": "Sedan", "pop": 16667, "capital": false, "iso": "FR", "rank": 4, "dept": "08", "deptRank": 2}}, {"type": "Feature", "geometry": {"type": "Point", "coordinates": [1.6168, 43.1278]}, "properties": {"name": "Pamiers", "pop": 16473, "capital": false, "iso": "FR", "rank": 3, "dept": "09", "deptRank": 1}}, {"type": "Feature", "geometry": {"type": "Point", "coordinates": [1.609, 42.9701]}, "properties": {"name": "Foix", "pop": 9934, "capital": false, "iso": "FR", "rank": 4, "dept": "09", "deptRank": 2}}, {"type": "Feature", "geometry": {"type": "Point", "coordinates": [4.0761, 48.2924]}, "properties": {"name": "Troyes", "pop": 62088, "capital": false, "iso": "FR", "rank": 3, "dept": "10", "deptRank": 1}}, {"type": "Feature", "geometry": {"type": "Point", "coordinates": [3.7158, 48.5158]}, "properties": {"name": "Romilly-sur-Seine", "pop": 14959, "capital": false, "iso": "FR", "rank": 4, "dept": "10", "deptRank": 2}}, {"type": "Feature", "geometry": {"type": "Point", "coordinates": [3.0337, 43.1493]}, "properties": {"name": "Narbonne", "pop": 57587, "capital": false, "iso": "FR", "rank": 3, "dept": "11", "deptRank": 1}}, {"type": "Feature", "geometry": {"type": "Point", "coordinates": [2.3491, 43.2078]}, "properties": {"name": "Carcassonne", "pop": 46080, "capital": false, "iso": "FR", "rank": 4, "dept": "11", "deptRank": 2}}, {"type": "Feature", "geometry": {"type": "Point", "coordinates": [2.5699, 44.3591]}, "properties": {"name": "Rodez", "pop": 23981, "capital": false, "iso": "FR", "rank": 3, "dept": "12", "deptRank": 1}}, {"type": "Feature", "geometry": {"type": "Point", "coordinates": [3.1176, 44.0982]}, "properties": {"name": "Millau", "pop": 22044, "capital": false, "iso": "FR", "rank": 4, "dept": "12", "deptRank": 2}}, {"type": "Feature", "geometry": {"type": "Point", "coordinates": [5.3806, 43.2803]}, "properties": {"name": "Marseille", "pop": 886040, "capital": false, "iso": "FR", "rank": 3, "dept": "13", "deptRank": 1}}, {"type": "Feature", "geometry": {"type": "Point", "coordinates": [5.3879, 43.536]}, "properties": {"name": "Aix-en-Provence", "pop": 149695, "capital": false, "iso": "FR", "rank": 4, "dept": "13", "deptRank": 2}}, {"type": "Feature", "geometry": {"type": "Point", "coordinates": [-0.3722, 49.1846]}, "properties": {"name": "Caen", "pop": 109400, "capital": false, "iso": "FR", "rank": 3, "dept": "14", "deptRank": 1}}, {"type": "Feature", "geometry": {"type": "Point", "coordinates": [-0.3324, 49.2042]}, "properties": {"name": "Hérouville-Saint-Clair", "pop": 23470, "capital": false, "iso": "FR", "rank": 4, "dept": "14", "deptRank": 2}}, {"type": "Feature", "geometry": {"type": "Point", "coordinates": [2.4416, 44.9281]}, "properties": {"name": "Aurillac", "pop": 26214, "capital": false, "iso": "FR", "rank": 3, "dept": "15", "deptRank": 1}}, {"type": "Feature", "geometry": {"type": "Point", "coordinates": [3.073, 45.0251]}, "properties": {"name": "Saint-Flour", "pop": 6391, "capital": false, "iso": "FR", "rank": 4, "dept": "15", "deptRank": 2}}, {"type": "Feature", "geometry": {"type": "Point", "coordinates": [0.145, 45.6458]}, "properties": {"name": "Angoulême", "pop": 41908, "capital": false, "iso": "FR", "rank": 3, "dept": "16", "deptRank": 1}}, {"type": "Feature", "geometry": {"type": "Point", "coordinates": [-0.3376, 45.696]}, "properties": {"name": "Cognac", "pop": 18532, "capital": false, "iso": "FR", "rank": 4, "dept": "16", "deptRank": 2}}, {"type": "Feature", "geometry": {"type": "Point", "coordinates": [-1.1765, 46.162]}, "properties": {"name": "La Rochelle", "pop": 79851, "capital": false, "iso": "FR", "rank": 3, "dept": "17", "deptRank": 1}}, {"type": "Feature", "geometry": {"type": "Point", "coordinates": [-0.6456, 45.7462]}, "properties": {"name": "Saintes", "pop": 25363, "capital": false, "iso": "FR", "rank": 4, "dept": "17", "deptRank": 2}}, {"type": "Feature", "geometry": {"type": "Point", "coordinates": [2.3983, 47.078]}, "properties": {"name": "Bourges", "pop": 64186, "capital": false, "iso": "FR", "rank": 3, "dept": "18", "deptRank": 1}}, {"type": "Feature", "geometry": {"type": "Point", "coordinates": [2.0776, 47.2351]}, "properties": {"name": "Vierzon", "pop": 25068, "capital": false, "iso": "FR", "rank": 4, "dept": "18", "deptRank": 2}}, {"type": "Feature", "geometry": {"type": "Point", "coordinates": [1.5144, 45.145]}, "properties": {"name": "Brive-la-Gaillarde", "pop": 47095, "capital": false, "iso": "FR", "rank": 3, "dept": "19", "deptRank": 1}}, {"type": "Feature", "geometry": {"type": "Point", "coordinates": [1.7663, 45.2685]}, "properties": {"name": "Tulle", "pop": 13401, "capital": false, "iso": "FR", "rank": 4, "dept": "19", "deptRank": 2}}, {"type": "Feature", "geometry": {"type": "Point", "coordinates": [5.0322, 47.3319]}, "properties": {"name": "Dijon", "pop": 161830, "capital": false, "iso": "FR", "rank": 3, "dept": "21", "deptRank": 1}}, {"type": "Feature", "geometry": {"type": "Point", "coordinates": [4.8421, 47.0272]}, "properties": {"name": "Beaune", "pop": 20352, "capital": false, "iso": "FR", "rank": 4, "dept": "21", "deptRank": 2}}, {"type": "Feature", "geometry": {"type": "Point", "coordinates": [-2.7657, 48.5108]}, "properties": {"name": "Saint-Brieuc", "pop": 44364, "capital": false, "iso": "FR", "rank": 3, "dept": "22", "deptRank": 1}}, {"type": "Feature", "geometry": {"type": "Point", "coordinates": [-3.4697, 48.7454]}, "properties": {"name": "Lannion", "pop": 20315, "capital": false, "iso": "FR", "rank": 4, "dept": "22", "deptRank": 2}}, {"type": "Feature", "geometry": {"type": "Point", "coordinates": [1.8705, 46.1585]}, "properties": {"name": "Guéret", "pop": 12955, "capital": false, "iso": "FR", "rank": 3, "dept": "23", "deptRank": 1}}, {"type": "Feature", "geometry": {"type": "Point", "coordinates": [1.4743, 46.2308]}, "properties": {"name": "La Souterraine", "pop": 4978, "capital": false, "iso": "FR", "rank": 4, "dept": "23", "deptRank": 2}}, {"type": "Feature", "geometry": {"type": "Point", "coordinates": [0.7105, 45.1939]}, "properties": {"name": "Périgueux", "pop": 29055, "capital": false, "iso": "FR", "rank": 3, "dept": "24", "deptRank": 1}}, {"type": "Feature", "geometry": {"type": "Point", "coordinates": [0.4883, 44.8519]}, "properties": {"name": "Bergerac", "pop": 27110, "capital": false, "iso": "FR", "rank": 4, "dept": "24", "deptRank": 2}}, {"type": "Feature", "geometry": {"type": "Point", "coordinates": [6.0123, 47.2602]}, "properties": {"name": "Besançon", "pop": 118489, "capital": false, "iso": "FR", "rank": 3, "dept": "25", "deptRank": 1}}, {"type": "Feature", "geometry": {"type": "Point", "coordinates": [6.7834, 47.5168]}, "properties": {"name": "Montbéliard", "pop": 24672, "capital": false, "iso": "FR", "rank": 4, "dept": "25", "deptRank": 2}}, {"type": "Feature", "geometry": {"type": "Point", "coordinates": [4.9164, 44.9234]}, "properties": {"name": "Valence", "pop": 64458, "capital": false, "iso": "FR", "rank": 3, "dept": "26", "deptRank": 1}}, {"type": "Feature", "geometry": {"type": "Point", "coordinates": [4.7454, 44.5545]}, "properties": {"name": "Montélimar", "pop": 40595, "capital": false, "iso": "FR", "rank": 4, "dept": "26", "deptRank": 2}}, {"type": "Feature", "geometry": {"type": "Point", "coordinates": [1.1406, 49.018]}, "properties": {"name": "Évreux", "pop": 49360, "capital": false, "iso": "FR", "rank": 3, "dept": "27", "deptRank": 1}}, {"type": "Feature", "geometry": {"type": "Point", "coordinates": [1.4827, 49.0921]}, "properties": {"name": "Vernon", "pop": 25290, "capital": false, "iso": "FR", "rank": 4, "dept": "27", "deptRank": 2}}, {"type": "Feature", "geometry": {"type": "Point", "coordinates": [1.5046, 48.4481]}, "properties": {"name": "Chartres", "pop": 38324, "capital": false, "iso": "FR", "rank": 3, "dept": "28", "deptRank": 1}}, {"type": "Feature", "geometry": {"type": "Point", "coordinates": [1.3578, 48.7482]}, "properties": {"name": "Dreux", "pop": 31543, "capital": false, "iso": "FR", "rank": 4, "dept": "28", "deptRank": 2}}, {"type": "Feature", "geometry": {"type": "Point", "coordinates": [-4.4996, 48.4085]}, "properties": {"name": "Brest", "pop": 142346, "capital": false, "iso": "FR", "rank": 3, "dept": "29", "deptRank": 1}}, {"type": "Feature", "geometry": {"type": "Point", "coordinates": [-4.0972, 47.9982]}, "properties": {"name": "Quimper", "pop": 64385, "capital": false, "iso": "FR", "rank": 4, "dept": "29", "deptRank": 2}}, {"type": "Feature", "geometry": {"type": "Point", "coordinates": [8.7058, 41.9228]}, "properties": {"name": "Ajaccio", "pop": 76320, "capital": false, "iso": "FR", "rank": 3, "dept": "2A", "deptRank": 1}}, {"type": "Feature", "geometry": {"type": "Point", "coordinates": [9.2732, 41.5849]}, "properties": {"name": "Porto-Vecchio", "pop": 11198, "capital": false, "iso": "FR", "rank": 4, "dept": "2A", "deptRank": 2}}, {"type": "Feature", "geometry": {"type": "Point", "coordinates": [9.424, 42.6861]}, "properties": {"name": "Bastia", "pop": 46867, "capital": false, "iso": "FR", "rank": 3, "dept": "2B", "deptRank": 1}}, {"type": "Feature", "geometry": {"type": "Point", "coordinates": [9.4546, 42.5809]}, "properties": {"name": "Borgo", "pop": 10311, "capital": false, "iso": "FR", "rank": 4, "dept": "2B", "deptRank": 2}}, {"type": "Feature", "geometry": {"type": "Point", "coordinates": [4.3429, 43.8322]}, "properties": {"name": "Nîmes", "pop": 151839, "capital": false, "iso": "FR", "rank": 3, "dept": "30", "deptRank": 1}}, {"type": "Feature", "geometry": {"type": "Point", "coordinates": [4.0905, 44.125]}, "properties": {"name": "Alès", "pop": 46125, "capital": false, "iso": "FR", "rank": 4, "dept": "30", "deptRank": 2}}, {"type": "Feature", "geometry": {"type": "Point", "coordinates": [1.4328, 43.6007]}, "properties": {"name": "Toulouse", "pop": 514819, "capital": false, "iso": "FR", "rank": 3, "dept": "31", "deptRank": 1}}, {"type": "Feature", "geometry": {"type": "Point", "coordinates": [1.3245, 43.6116]}, "properties": {"name": "Colomiers", "pop": 40882, "capital": false, "iso": "FR", "rank": 4, "dept": "31", "deptRank": 2}}, {"type": "Feature", "geometry": {"type": "Point", "coordinates": [0.5673, 43.6602]}, "properties": {"name": "Auch", "pop": 22428, "capital": false, "iso": "FR", "rank": 3, "dept": "32", "deptRank": 1}}, {"type": "Feature", "geometry": {"type": "Point", "coordinates": [1.0826, 43.6159]}, "properties": {"name": "L'Isle-Jourdain", "pop": 9537, "capital": false, "iso": "FR", "rank": 4, "dept": "32", "deptRank": 2}}, {"type": "Feature", "geometry": {"type": "Point", "coordinates": [-0.5848, 44.8624]}, "properties": {"name": "Bordeaux", "pop": 267991, "capital": false, "iso": "FR", "rank": 3, "dept": "33", "deptRank": 1}}, {"type": "Feature", "geometry": {"type": "Point", "coordinates": [-0.682, 44.8313]}, "properties": {"name": "Mérignac", "pop": 78090, "capital": false, "iso": "FR", "rank": 4, "dept": "33", "deptRank": 2}}, {"type": "Feature", "geometry": {"type": "Point", "coordinates": [3.8742, 43.61]}, "properties": {"name": "Montpellier", "pop": 310240, "capital": false, "iso": "FR", "rank": 3, "dept": "34", "deptRank": 1}}, {"type": "Feature", "geometry": {"type": "Point", "coordinates": [3.2342, 43.3481]}, "properties": {"name": "Béziers", "pop": 81545, "capital": false, "iso": "FR", "rank": 4, "dept": "34", "deptRank": 2}}, {"type": "Feature", "geometry": {"type": "Point", "coordinates": [-1.6884, 48.1159]}, "properties": {"name": "Rennes", "pop": 230890, "capital": false, "iso": "FR", "rank": 3, "dept": "35", "deptRank": 1}}, {"type": "Feature", "geometry": {"type": "Point", "coordinates": [-2.0066, 48.6465]}, "properties": {"name": "Saint-Malo", "pop": 47439, "capital": false, "iso": "FR", "rank": 4, "dept": "35", "deptRank": 2}}, {"type": "Feature", "geometry": {"type": "Point", "coordinates": [1.6903, 46.8023]}, "properties": {"name": "Châteauroux", "pop": 42963, "capital": false, "iso": "FR", "rank": 3, "dept": "36", "deptRank": 1}}, {"type": "Feature", "geometry": {"type": "Point", "coordinates": [2.0077, 46.9447]}, "properties": {"name": "Issoudun", "pop": 11159, "capital": false, "iso": "FR", "rank": 4, "dept": "36", "deptRank": 2}}, {"type": "Feature", "geometry": {"type": "Point", "coordinates": [0.6949, 47.3943]}, "properties": {"name": "Tours", "pop": 139259, "capital": false, "iso": "FR", "rank": 3, "dept": "37", "deptRank": 1}}, {"type": "Feature", "geometry": {"type": "Point", "coordinates": [0.6544, 47.3374]}, "properties": {"name": "Joué-lès-Tours", "pop": 38423, "capital": false, "iso": "FR", "rank": 4, "dept": "37", "deptRank": 2}}, {"type": "Feature", "geometry": {"type": "Point", "coordinates": [5.7155, 45.1842]}, "properties": {"name": "Grenoble", "pop": 156140, "capital": false, "iso": "FR", "rank": 3, "dept": "38", "deptRank": 1}}, {"type": "Feature", "geometry": {"type": "Point", "coordinates": [5.7646, 45.1782]}, "properties": {"name": "Saint-Martin-d'Hères", "pop": 37695, "capital": false, "iso": "FR", "rank": 4, "dept": "38", "deptRank": 2}}, {"type": "Feature", "geometry": {"type": "Point", "coordinates": [5.5024, 47.0739]}, "properties": {"name": "Dole", "pop": 23840, "capital": false, "iso": "FR", "rank": 3, "dept": "39", "deptRank": 1}}, {"type": "Feature", "geometry": {"type": "Point", "coordinates": [5.5574, 46.6758]}, "properties": {"name": "Lons-le-Saunier", "pop": 16618, "capital": false, "iso": "FR", "rank": 4, "dept": "39", "deptRank": 2}}, {"type": "Feature", "geometry": {"type": "Point", "coordinates": [-0.5009, 43.8931]}, "properties": {"name": "Mont-de-Marsan", "pop": 31592, "capital": false, "iso": "FR", "rank": 3, "dept": "40", "deptRank": 1}}, {"type": "Feature", "geometry": {"type": "Point", "coordinates": [-1.0637, 43.7025]}, "properties": {"name": "Dax", "pop": 22109, "capital": false, "iso": "FR", "rank": 4, "dept": "40", "deptRank": 2}}, {"type": "Feature", "geometry": {"type": "Point", "coordinates": [1.3049, 47.5813]}, "properties": {"name": "Blois", "pop": 47219, "capital": false, "iso": "FR", "rank": 3, "dept": "41", "deptRank": 1}}, {"type": "Feature", "geometry": {"type": "Point", "coordinates": [1.7368, 47.3725]}, "properties": {"name": "Romorantin-Lanthenay", "pop": 18373, "capital": false, "iso": "FR", "rank": 4, "dept": "41", "deptRank": 2}}, {"type": "Feature", "geometry": {"type": "Point", "coordinates": [4.3665, 45.4241]}, "properties": {"name": "Saint-Étienne", "pop": 173136, "capital": false, "iso": "FR", "rank": 3, "dept": "42", "deptRank": 1}}, {"type": "Feature", "geometry": {"type": "Point", "coordinates": [4.5082, 45.4687]}, "properties": {"name": "Saint-Chamond", "pop": 35646, "capital": false, "iso": "FR", "rank": 4, "dept": "42", "deptRank": 2}}, {"type": "Feature", "geometry": {"type": "Point", "coordinates": [3.8973, 45.0283]}, "properties": {"name": "Le Puy-en-Velay", "pop": 18540, "capital": false, "iso": "FR", "rank": 3, "dept": "43", "deptRank": 1}}, {"type": "Feature", "geometry": {"type": "Point", "coordinates": [4.1856, 45.2857]}, "properties": {"name": "Monistrol-sur-Loire", "pop": 8823, "capital": false, "iso": "FR", "rank": 4, "dept": "43", "deptRank": 2}}, {"type": "Feature", "geometry": {"type": "Point", "coordinates": [-1.5603, 47.2382]}, "properties": {"name": "Nantes", "pop": 327734, "capital": false, "iso": "FR", "rank": 3, "dept": "44", "deptRank": 1}}, {"type": "Feature", "geometry": {"type": "Point", "coordinates": [-2.2392, 47.2768]}, "properties": {"name": "Saint-Nazaire", "pop": 74568, "capital": false, "iso": "FR", "rank": 4, "dept": "44", "deptRank": 2}}, {"type": "Feature", "geometry": {"type": "Point", "coordinates": [1.9122, 47.8734]}, "properties": {"name": "Orléans", "pop": 116357, "capital": false, "iso": "FR", "rank": 3, "dept": "45", "deptRank": 1}}, {"type": "Feature", "geometry": {"type": "Point", "coordinates": [1.8913, 47.8559]}, "properties": {"name": "Olivet", "pop": 23507, "capital": false, "iso": "FR", "rank": 4, "dept": "45", "deptRank": 2}}, {"type": "Feature", "geometry": {"type": "Point", "coordinates": [1.439, 44.4565]}, "properties": {"name": "Cahors", "pop": 20050, "capital": false, "iso": "FR", "rank": 3, "dept": "46", "deptRank": 1}}, {"type": "Feature", "geometry": {"type": "Point", "coordinates": [2.0231, 44.6067]}, "properties": {"name": "Figeac", "pop": 9793, "capital": false, "iso": "FR", "rank": 4, "dept": "46", "deptRank": 2}}, {"type": "Feature", "geometry": {"type": "Point", "coordinates": [0.6302, 44.201]}, "properties": {"name": "Agen", "pop": 32801, "capital": false, "iso": "FR", "rank": 3, "dept": "47", "deptRank": 1}}, {"type": "Feature", "geometry": {"type": "Point", "coordinates": [0.7484, 44.4183]}, "properties": {"name": "Villeneuve-sur-Lot", "pop": 22350, "capital": false, "iso": "FR", "rank": 4, "dept": "47", "deptRank": 2}}, {"type": "Feature", "geometry": {"type": "Point", "coordinates": [3.4909, 44.5349]}, "properties": {"name": "Mende", "pop": 12464, "capital": false, "iso": "FR", "rank": 3, "dept": "48", "deptRank": 1}}, {"type": "Feature", "geometry": {"type": "Point", "coordinates": [3.2878, 44.5549]}, "properties": {"name": "Marvejols", "pop": 4764, "capital": false, "iso": "FR", "rank": 4, "dept": "48", "deptRank": 2}}, {"type": "Feature", "geometry": {"type": "Point", "coordinates": [-0.5629, 47.4819]}, "properties": {"name": "Angers", "pop": 159022, "capital": false, "iso": "FR", "rank": 3, "dept": "49", "deptRank": 1}}, {"type": "Feature", "geometry": {"type": "Point", "coordinates": [-0.875, 47.0358]}, "properties": {"name": "Cholet", "pop": 54404, "capital": false, "iso": "FR", "rank": 4, "dept": "49", "deptRank": 2}}, {"type": "Feature", "geometry": {"type": "Point", "coordinates": [-1.6356, 49.6277]}, "properties": {"name": "Cherbourg-en-Cotentin", "pop": 78258, "capital": false, "iso": "FR", "rank": 3, "dept": "50", "deptRank": 1}}, {"type": "Feature", "geometry": {"type": "Point", "coordinates": [-1.0812, 49.1123]}, "properties": {"name": "Saint-Lô", "pop": 19471, "capital": false, "iso": "FR", "rank": 4, "dept": "50", "deptRank": 2}}, {"type": "Feature", "geometry": {"type": "Point", "coordinates": [4.0551, 49.2535]}, "properties": {"name": "Reims", "pop": 177674, "capital": false, "iso": "FR", "rank": 3, "dept": "51", "deptRank": 1}}, {"type": "Feature", "geometry": {"type": "Point", "coordinates": [4.3801, 48.9656]}, "properties": {"name": "Châlons-en-Champagne", "pop": 42971, "capital": false, "iso": "FR", "rank": 4, "dept": "51", "deptRank": 2}}, {"type": "Feature", "geometry": {"type": "Point", "coordinates": [4.9399, 48.6319]}, "properties": {"name": "Saint-Dizier", "pop": 22858, "capital": false, "iso": "FR", "rank": 3, "dept": "52", "deptRank": 1}}, {"type": "Feature", "geometry": {"type": "Point", "coordinates": [5.1566, 48.0965]}, "properties": {"name": "Chaumont", "pop": 20827, "capital": false, "iso": "FR", "rank": 4, "dept": "52", "deptRank": 2}}, {"type": "Feature", "geometry": {"type": "Point", "coordinates": [-0.7692, 48.0578]}, "properties": {"name": "Laval", "pop": 49400, "capital": false, "iso": "FR", "rank": 3, "dept": "53", "deptRank": 1}}, {"type": "Feature", "geometry": {"type": "Point", "coordinates": [-0.701, 47.821]}, "properties": {"name": "Château-Gontier-sur-Mayenne", "pop": 16584, "capital": false, "iso": "FR", "rank": 4, "dept": "53", "deptRank": 2}}, {"type": "Feature", "geometry": {"type": "Point", "coordinates": [6.1734, 48.6881]}, "properties": {"name": "Nancy", "pop": 103671, "capital": false, "iso": "FR", "rank": 3, "dept": "54", "deptRank": 1}}, {"type": "Feature", "geometry": {"type": "Point", "coordinates": [6.1603, 48.66]}, "properties": {"name": "Vandœuvre-lès-Nancy", "pop": 29942, "capital": false, "iso": "FR", "rank": 4, "dept": "54", "deptRank": 2}}, {"type": "Feature", "geometry": {"type": "Point", "coordinates": [5.3609, 49.144]}, "properties": {"name": "Verdun", "pop": 16890, "capital": false, "iso": "FR", "rank": 3, "dept": "55", "deptRank": 1}}, {"type": "Feature", "geometry": {"type": "Point", "coordinates": [5.1732, 48.7628]}, "properties": {"name": "Bar-le-Duc", "pop": 14607, "capital": false, "iso": "FR", "rank": 4, "dept": "55", "deptRank": 2}}, {"type": "Feature", "geometry": {"type": "Point", "coordinates": [-3.3799, 47.7494]}, "properties": {"name": "Lorient", "pop": 58329, "capital": false, "iso": "FR", "rank": 3, "dept": "56", "deptRank": 1}}, {"type": "Feature", "geometry": {"type": "Point", "coordinates": [-2.7485, 47.6577]}, "properties": {"name": "Vannes", "pop": 55790, "capital": false, "iso": "FR", "rank": 4, "dept": "56", "deptRank": 2}}, {"type": "Feature", "geometry": {"type": "Point", "coordinates": [6.1962, 49.1048]}, "properties": {"name": "Metz", "pop": 122572, "capital": false, "iso": "FR", "rank": 3, "dept": "57", "deptRank": 1}}, {"type": "Feature", "geometry": {"type": "Point", "coordinates": [6.1443, 49.3718]}, "properties": {"name": "Thionville", "pop": 42658, "capital": false, "iso": "FR", "rank": 4, "dept": "57", "deptRank": 2}}, {"type": "Feature", "geometry": {"type": "Point", "coordinates": [3.1598, 46.9852]}, "properties": {"name": "Nevers", "pop": 33085, "capital": false, "iso": "FR", "rank": 3, "dept": "58", "deptRank": 1}}, {"type": "Feature", "geometry": {"type": "Point", "coordinates": [2.9419, 47.414]}, "properties": {"name": "Cosne-Cours-sur-Loire", "pop": 9733, "capital": false, "iso": "FR", "rank": 4, "dept": "58", "deptRank": 2}}, {"type": "Feature", "geometry": {"type": "Point", "coordinates": [3.0468, 50.6311]}, "properties": {"name": "Lille", "pop": 238246, "capital": false, "iso": "FR", "rank": 3, "dept": "59", "deptRank": 1}}, {"type": "Feature", "geometry": {"type": "Point", "coordinates": [3.1577, 50.721]}, "properties": {"name": "Tourcoing", "pop": 98772, "capital": false, "iso": "FR", "rank": 4, "dept": "59", "deptRank": 2}}, {"type": "Feature", "geometry": {"type": "Point", "coordinates": [2.0877, 49.4425]}, "properties": {"name": "Beauvais", "pop": 55550, "capital": false, "iso": "FR", "rank": 3, "dept": "60", "deptRank": 1}}, {"type": "Feature", "geometry": {"type": "Point", "coordinates": [2.8547, 49.4006]}, "properties": {"name": "Compiègne", "pop": 40761, "capital": false, "iso": "FR", "rank": 4, "dept": "60", "deptRank": 2}}, {"type": "Feature", "geometry": {"type": "Point", "coordinates": [0.0923, 48.431]}, "properties": {"name": "Alençon", "pop": 25490, "capital": false, "iso": "FR", "rank": 3, "dept": "61", "deptRank": 1}}, {"type": "Feature", "geometry": {"type": "Point", "coordinates": [-0.5603, 48.7389]}, "properties": {"name": "Flers", "pop": 14432, "capital": false, "iso": "FR", "rank": 4, "dept": "61", "deptRank": 2}}, {"type": "Feature", "geometry": {"type": "Point", "coordinates": [1.869, 50.9523]}, "properties": {"name": "Calais", "pop": 67571, "capital": false, "iso": "FR", "rank": 3, "dept": "62", "deptRank": 1}}, {"type": "Feature", "geometry": {"type": "Point", "coordinates": [2.7679, 50.2893]}, "properties": {"name": "Arras", "pop": 42875, "capital": false, "iso": "FR", "rank": 4, "dept": "62", "deptRank": 2}}, {"type": "Feature", "geometry": {"type": "Point", "coordinates": [3.1127, 45.787]}, "properties": {"name": "Clermont-Ferrand", "pop": 146351, "capital": false, "iso": "FR", "rank": 3, "dept": "63", "deptRank": 1}}, {"type": "Feature", "geometry": {"type": "Point", "coordinates": [3.1885, 45.742]}, "properties": {"name": "Cournon-d'Auvergne", "pop": 19951, "capital": false, "iso": "FR", "rank": 4, "dept": "63", "deptRank": 2}}, {"type": "Feature", "geometry": {"type": "Point", "coordinates": [-0.3435, 43.3219]}, "properties": {"name": "Pau", "pop": 80441, "capital": false, "iso": "FR", "rank": 3, "dept": "64", "deptRank": 1}}, {"type": "Feature", "geometry": {"type": "Point", "coordinates": [-1.4611, 43.4844]}, "properties": {"name": "Bayonne", "pop": 54306, "capital": false, "iso": "FR", "rank": 4, "dept": "64", "deptRank": 2}}, {"type": "Feature", "geometry": {"type": "Point", "coordinates": [0.0653, 43.2387]}, "properties": {"name": "Tarbes", "pop": 44399, "capital": false, "iso": "FR", "rank": 3, "dept": "65", "deptRank": 1}}, {"type": "Feature", "geometry": {"type": "Point", "coordinates": [-0.0806, 43.109]}, "properties": {"name": "Lourdes", "pop": 13266, "capital": false, "iso": "FR", "rank": 4, "dept": "65", "deptRank": 2}}, {"type": "Feature", "geometry": {"type": "Point", "coordinates": [2.9045, 42.699]}, "properties": {"name": "Perpignan", "pop": 121616, "capital": false, "iso": "FR", "rank": 3, "dept": "66", "deptRank": 1}}, {"type": "Feature", "geometry": {"type": "Point", "coordinates": [3.002, 42.6809]}, "properties": {"name": "Canet-en-Roussillon", "pop": 13227, "capital": false, "iso": "FR", "rank": 4, "dept": "66", "deptRank": 2}}, {"type": "Feature", "geometry": {"type": "Point", "coordinates": [7.7621, 48.5691]}, "properties": {"name": "Strasbourg", "pop": 293771, "capital": false, "iso": "FR", "rank": 3, "dept": "67", "deptRank": 1}}, {"type": "Feature", "geometry": {"type": "Point", "coordinates": [7.8213, 48.8388]}, "properties": {"name": "Haguenau", "pop": 36391, "capital": false, "iso": "FR", "rank": 4, "dept": "67", "deptRank": 2}}, {"type": "Feature", "geometry": {"type": "Point", "coordinates": [7.3255, 47.7526]}, "properties": {"name": "Mulhouse", "pop": 104978, "capital": false, "iso": "FR", "rank": 3, "dept": "68", "deptRank": 1}}, {"type": "Feature", "geometry": {"type": "Point", "coordinates": [7.3924, 48.1115]}, "properties": {"name": "Colmar", "pop": 66970, "capital": false, "iso": "FR", "rank": 4, "dept": "68", "deptRank": 2}}, {"type": "Feature", "geometry": {"type": "Point", "coordinates": [4.8351, 45.758]}, "properties": {"name": "Lyon", "pop": 519127, "capital": false, "iso": "FR", "rank": 3, "dept": "69", "deptRank": 1}}, {"type": "Feature", "geometry": {"type": "Point", "coordinates": [4.8898, 45.7719]}, "properties": {"name": "Villeurbanne", "pop": 163684, "capital": false, "iso": "FR", "rank": 4, "dept": "69", "deptRank": 2}}, {"type": "Feature", "geometry": {"type": "Point", "coordinates": [6.1523, 47.6323]}, "properties": {"name": "Vesoul", "pop": 15078, "capital": false, "iso": "FR", "rank": 3, "dept": "70", "deptRank": 1}}, {"type": "Feature", "geometry": {"type": "Point", "coordinates": [6.7594, 47.5666]}, "properties": {"name": "Héricourt", "pop": 10621, "capital": false, "iso": "FR", "rank": 4, "dept": "70", "deptRank": 2}}, {"type": "Feature", "geometry": {"type": "Point", "coordinates": [4.8509, 46.7896]}, "properties": {"name": "Chalon-sur-Saône", "pop": 45102, "capital": false, "iso": "FR", "rank": 3, "dept": "71", "deptRank": 1}}, {"type": "Feature", "geometry": {"type": "Point", "coordinates": [4.8083, 46.3265]}, "properties": {"name": "Mâcon", "pop": 35177, "capital": false, "iso": "FR", "rank": 4, "dept": "71", "deptRank": 2}}, {"type": "Feature", "geometry": {"type": "Point", "coordinates": [0.1957, 47.9819]}, "properties": {"name": "Le Mans", "pop": 146249, "capital": false, "iso": "FR", "rank": 3, "dept": "72", "deptRank": 1}}, {"type": "Feature", "geometry": {"type": "Point", "coordinates": [-0.0605, 47.6908]}, "properties": {"name": "La Flèche", "pop": 14947, "capital": false, "iso": "FR", "rank": 4, "dept": "72", "deptRank": 2}}, {"type": "Feature", "geometry": {"type": "Point", "coordinates": [5.9064, 45.5822]}, "properties": {"name": "Chambéry", "pop": 59964, "capital": false, "iso": "FR", "rank": 3, "dept": "73", "deptRank": 1}}, {"type": "Feature", "geometry": {"type": "Point", "coordinates": [5.9035, 45.6943]}, "properties": {"name": "Aix-les-Bains", "pop": 32406, "capital": false, "iso": "FR", "rank": 4, "dept": "73", "deptRank": 2}}, {"type": "Feature", "geometry": {"type": "Point", "coordinates": [6.1264, 45.9024]}, "properties": {"name": "Annecy", "pop": 132117, "capital": false, "iso": "FR", "rank": 3, "dept": "74", "deptRank": 1}}, {"type": "Feature", "geometry": {"type": "Point", "coordinates": [6.4776, 46.3745]}, "properties": {"name": "Thonon-les-Bains", "pop": 37928, "capital": false, "iso": "FR", "rank": 4, "dept": "74", "deptRank": 2}}, {"type": "Feature", "geometry": {"type": "Point", "coordinates": [2.347, 48.8589]}, "properties": {"name": "Paris", "pop": 2103778, "capital": true, "iso": "FR", "rank": 1, "dept": "75", "deptRank": 1}}, {"type": "Feature", "geometry": {"type": "Point", "coordinates": [0.1312, 49.4958]}, "properties": {"name": "Le Havre", "pop": 166687, "capital": false, "iso": "FR", "rank": 3, "dept": "76", "deptRank": 1}}, {"type": "Feature", "geometry": {"type": "Point", "coordinates": [1.0912, 49.4412]}, "properties": {"name": "Rouen", "pop": 117662, "capital": false, "iso": "FR", "rank": 4, "dept": "76", "deptRank": 2}}, {"type": "Feature", "geometry": {"type": "Point", "coordinates": [2.9035, 48.9573]}, "properties": {"name": "Meaux", "pop": 56905, "capital": false, "iso": "FR", "rank": 3, "dept": "77", "deptRank": 1}}, {"type": "Feature", "geometry": {"type": "Point", "coordinates": [2.5954, 48.8845]}, "properties": {"name": "Chelles", "pop": 54620, "capital": false, "iso": "FR", "rank": 4, "dept": "77", "deptRank": 2}}, {"type": "Feature", "geometry": {"type": "Point", "coordinates": [2.1191, 48.8039]}, "properties": {"name": "Versailles", "pop": 84095, "capital": false, "iso": "FR", "rank": 3, "dept": "78", "deptRank": 1}}, {"type": "Feature", "geometry": {"type": "Point", "coordinates": [2.1744, 48.9374]}, "properties": {"name": "Sartrouville", "pop": 52763, "capital": false, "iso": "FR", "rank": 4, "dept": "78", "deptRank": 2}}, {"type": "Feature", "geometry": {"type": "Point", "coordinates": [-0.4613, 46.3274]}, "properties": {"name": "Niort", "pop": 59854, "capital": false, "iso": "FR", "rank": 3, "dept": "79", "deptRank": 1}}, {"type": "Feature", "geometry": {"type": "Point", "coordinates": [-0.4733, 46.8654]}, "properties": {"name": "Bressuire", "pop": 19970, "capital": false, "iso": "FR", "rank": 4, "dept": "79", "deptRank": 2}}, {"type": "Feature", "geometry": {"type": "Point", "coordinates": [2.2847, 49.8987]}, "properties": {"name": "Amiens", "pop": 136449, "capital": false, "iso": "FR", "rank": 3, "dept": "80", "deptRank": 1}}, {"type": "Feature", "geometry": {"type": "Point", "coordinates": [1.8319, 50.1101]}, "properties": {"name": "Abbeville", "pop": 22395, "capital": false, "iso": "FR", "rank": 4, "dept": "80", "deptRank": 2}}, {"type": "Feature", "geometry": {"type": "Point", "coordinates": [2.1323, 43.929]}, "properties": {"name": "Albi", "pop": 51290, "capital": false, "iso": "FR", "rank": 3, "dept": "81", "deptRank": 1}}, {"type": "Feature", "geometry": {"type": "Point", "coordinates": [2.2448, 43.6132]}, "properties": {"name": "Castres", "pop": 42505, "capital": false, "iso": "FR", "rank": 4, "dept": "81", "deptRank": 2}}, {"type": "Feature", "geometry": {"type": "Point", "coordinates": [1.3646, 44.0217]}, "properties": {"name": "Montauban", "pop": 62945, "capital": false, "iso": "FR", "rank": 3, "dept": "82", "deptRank": 1}}, {"type": "Feature", "geometry": {"type": "Point", "coordinates": [1.1211, 44.0536]}, "properties": {"name": "Castelsarrasin", "pop": 14343, "capital": false, "iso": "FR", "rank": 4, "dept": "82", "deptRank": 2}}, {"type": "Feature", "geometry": {"type": "Point", "coordinates": [5.9334, 43.1364]}, "properties": {"name": "Toulon", "pop": 179116, "capital": false, "iso": "FR", "rank": 3, "dept": "83", "deptRank": 1}}, {"type": "Feature", "geometry": {"type": "Point", "coordinates": [5.8789, 43.0837]}, "properties": {"name": "La Seyne-sur-Mer", "pop": 63732, "capital": false, "iso": "FR", "rank": 4, "dept": "83", "deptRank": 2}}, {"type": "Feature", "geometry": {"type": "Point", "coordinates": [4.8333, 43.9416]}, "properties": {"name": "Avignon", "pop": 92188, "capital": false, "iso": "FR", "rank": 3, "dept": "84", "deptRank": 1}}, {"type": "Feature", "geometry": {"type": "Point", "coordinates": [5.0584, 44.0629]}, "properties": {"name": "Carpentras", "pop": 31619, "capital": false, "iso": "FR", "rank": 4, "dept": "84", "deptRank": 2}}, {"type": "Feature", "geometry": {"type": "Point", "coordinates": [-1.4162, 46.6659]}, "properties": {"name": "La Roche-sur-Yon", "pop": 54849, "capital": false, "iso": "FR", "rank": 3, "dept": "85", "deptRank": 1}}, {"type": "Feature", "geometry": {"type": "Point", "coordinates": [-1.7611, 46.5264]}, "properties": {"name": "Les Sables-d'Olonne", "pop": 49603, "capital": false, "iso": "FR", "rank": 4, "dept": "85", "deptRank": 2}}, {"type": "Feature", "geometry": {"type": "Point", "coordinates": [0.3715, 46.5846]}, "properties": {"name": "Poitiers", "pop": 89916, "capital": false, "iso": "FR", "rank": 3, "dept": "86", "deptRank": 1}}, {"type": "Feature", "geometry": {"type": "Point", "coordinates": [0.5583, 46.8147]}, "properties": {"name": "Châtellerault", "pop": 31003, "capital": false, "iso": "FR", "rank": 4, "dept": "86", "deptRank": 2}}, {"type": "Feature", "geometry": {"type": "Point", "coordinates": [1.226, 45.8567]}, "properties": {"name": "Limoges", "pop": 129937, "capital": false, "iso": "FR", "rank": 3, "dept": "87", "deptRank": 1}}, {"type": "Feature", "geometry": {"type": "Point", "coordinates": [0.8853, 45.8965]}, "properties": {"name": "Saint-Junien", "pop": 11415, "capital": false, "iso": "FR", "rank": 4, "dept": "87", "deptRank": 2}}, {"type": "Feature", "geometry": {"type": "Point", "coordinates": [6.4867, 48.1637]}, "properties": {"name": "Épinal", "pop": 32251, "capital": false, "iso": "FR", "rank": 3, "dept": "88", "deptRank": 1}}, {"type": "Feature", "geometry": {"type": "Point", "coordinates": [6.9386, 48.2973]}, "properties": {"name": "Saint-Dié-des-Vosges", "pop": 19251, "capital": false, "iso": "FR", "rank": 4, "dept": "88", "deptRank": 2}}, {"type": "Feature", "geometry": {"type": "Point", "coordinates": [3.5821, 47.7939]}, "properties": {"name": "Auxerre", "pop": 35097, "capital": false, "iso": "FR", "rank": 3, "dept": "89", "deptRank": 1}}, {"type": "Feature", "geometry": {"type": "Point", "coordinates": [3.3039, 48.1949]}, "properties": {"name": "Sens", "pop": 27106, "capital": false, "iso": "FR", "rank": 4, "dept": "89", "deptRank": 2}}, {"type": "Feature", "geometry": {"type": "Point", "coordinates": [6.841, 47.6458]}, "properties": {"name": "Belfort", "pop": 45912, "capital": false, "iso": "FR", "rank": 3, "dept": "90", "deptRank": 1}}, {"type": "Feature", "geometry": {"type": "Point", "coordinates": [6.996, 47.509]}, "properties": {"name": "Delle", "pop": 5623, "capital": false, "iso": "FR", "rank": 4, "dept": "90", "deptRank": 2}}, {"type": "Feature", "geometry": {"type": "Point", "coordinates": [2.4313, 48.6287]}, "properties": {"name": "Évry-Courcouronnes", "pop": 66919, "capital": false, "iso": "FR", "rank": 3, "dept": "91", "deptRank": 1}}, {"type": "Feature", "geometry": {"type": "Point", "coordinates": [2.4646, 48.5973]}, "properties": {"name": "Corbeil-Essonnes", "pop": 54471, "capital": false, "iso": "FR", "rank": 4, "dept": "91", "deptRank": 2}}, {"type": "Feature", "geometry": {"type": "Point", "coordinates": [2.2429, 48.8375]}, "properties": {"name": "Boulogne-Billancourt", "pop": 119019, "capital": false, "iso": "FR", "rank": 3, "dept": "92", "deptRank": 1}}, {"type": "Feature", "geometry": {"type": "Point", "coordinates": [2.2018, 48.8974]}, "properties": {"name": "Nanterre", "pop": 97783, "capital": false, "iso": "FR", "rank": 4, "dept": "92", "deptRank": 2}}, {"type": "Feature", "geometry": {"type": "Point", "coordinates": [2.3657, 48.9378]}, "properties": {"name": "Saint-Denis", "pop": 149077, "capital": false, "iso": "FR", "rank": 3, "dept": "93", "deptRank": 1}}, {"type": "Feature", "geometry": {"type": "Point", "coordinates": [2.4491, 48.8637]}, "properties": {"name": "Montreuil", "pop": 111934, "capital": false, "iso": "FR", "rank": 4, "dept": "93", "deptRank": 2}}, {"type": "Feature", "geometry": {"type": "Point", "coordinates": [2.3951, 48.7893]}, "properties": {"name": "Vitry-sur-Seine", "pop": 93963, "capital": false, "iso": "FR", "rank": 3, "dept": "94", "deptRank": 1}}, {"type": "Feature", "geometry": {"type": "Point", "coordinates": [2.4523, 48.7845]}, "properties": {"name": "Créteil", "pop": 93397, "capital": false, "iso": "FR", "rank": 4, "dept": "94", "deptRank": 2}}, {"type": "Feature", "geometry": {"type": "Point", "coordinates": [2.2478, 48.9501]}, "properties": {"name": "Argenteuil", "pop": 106130, "capital": false, "iso": "FR", "rank": 3, "dept": "95", "deptRank": 1}}, {"type": "Feature", "geometry": {"type": "Point", "coordinates": [2.0455, 49.0373]}, "properties": {"name": "Cergy", "pop": 70906, "capital": false, "iso": "FR", "rank": 4, "dept": "95", "deptRank": 2}}]}